SL-16 R/B               
1 25400U 98043G   25344.48295122  .00000152  00000+0  82445-4 0  9990
2 25400  98.8122 292.2884 0008802 274.1153  85.9020 14.26024722426274
SL-16 R/B               
1 25407U 98045B   25344.43378993 -.00000176  00000+0 -64972-4 0  9995
2 25407  71.0121   9.2766 0007047 181.4236 178.6868 14.16175566414460
ISS (ZARYA)             
1 25544U 98067A   25344.15480881  .00014816  00000+0  27210-3 0  9997
2 25544  51.6306 155.2782 0003395 228.7831 131.2865 15.49465630542453
CZ-4B R/B               
1 25732U 99025C   25344.41113176  .00000115  00000+0  76517-4 0  9992
2 25732  98.6772  25.7432 0036221 240.8643 129.6286 14.18242690375516
OKEAN-O                 
1 25860U 99039A   25344.15311761  .00001188  00000+0  16338-3 0  9995
2 25860  97.9605  39.8771 0000791  92.7528 267.3774 14.80153992421144
SL-16 R/B               
1 25861U 99039B   25344.42083093  .00001038  00000+0  13885-3 0  9998
2 25861  98.0128  38.5718 0014745 182.1760 177.9390 14.81581311423648
DELTA 2 R/B             
1 25876U 99041E   25344.30607881  .00001557  00000+0  29020-3 0  9995
2 25876  51.7616 298.1609 0504740  84.5924 281.2353 14.11390937350407
HELIOS 1B               
1 25977U 99064A   25344.31419976  .00003346  00000+0  37766-3 0  9993
2 25977  98.1751 238.9078 0001860  46.4517 313.6852 14.87266172671974
TERRA                   
1 25994U 99068A   25344.39584397  .00000737  00000+0  15965-3 0  9992
2 25994  97.9752  36.1664 0003593  99.1310 271.7216 14.60897678382048
SL-16 R/B               
1 26070U 00006B   25344.28473867 -.00000003  00000+0  22606-4 0  9997
2 26070  71.0033 285.8189 0018397 312.0128  47.9428 14.15810705335903
TITAN 4B R/B            
1 26474U 00047B   25344.42277015  .00005598  00000+0  35759-3 0  9998
2 26474  67.9902 291.3621 0039105 147.3245 213.0336 15.08752344379440
ENVISAT                 
1 27386U 02009A   25344.48133537  .00000252  00000+0  95555-4 0  9990
2 27386  98.3595 295.2791 0001138  81.9424  28.3166 14.38997939246340
