CCSDS_OMM_VERS = 2.0
CREATION_DATE  = 
ORIGINATOR     = 

OBJECT_NAME    = SL-16 R/B
OBJECT_ID      = 1998-043G
CENTER_NAME    = EARTH
REF_FRAME      = TEME
TIME_SYSTEM    = UTC
MEAN_ELEMENT_THEORY = SGP/SGP4

EPOCH          = 2025-12-10T11:35:26.985408
MEAN_MOTION    = 14.26024722
ECCENTRICITY   = .0008802
INCLINATION    = 98.8122
RA_OF_ASC_NODE = 292.2884
ARG_OF_PERICENTER = 274.1153
MEAN_ANOMALY   = 85.9020

EPHEMERIS_TYPE = 0
CLASSIFICATION_TYPE = U
NORAD_CAT_ID   = 25400
ELEMENT_SET_NO = 999
REV_AT_EPOCH   = 42627
BSTAR          = .82445E-4
MEAN_MOTION_DOT = .152E-5
MEAN_MOTION_DDOT = 0

CCSDS_OMM_VERS = 2.0
CREATION_DATE  = 
ORIGINATOR     = 

OBJECT_NAME    = SL-16 R/B
OBJECT_ID      = 1998-045B
CENTER_NAME    = EARTH
REF_FRAME      = TEME
TIME_SYSTEM    = UTC
MEAN_ELEMENT_THEORY = SGP/SGP4

EPOCH          = 2025-12-10T10:24:39.449952
MEAN_MOTION    = 14.16175566
ECCENTRICITY   = .0007047
INCLINATION    = 71.0121
RA_OF_ASC_NODE = 9.2766
ARG_OF_PERICENTER = 181.4236
MEAN_ANOMALY   = 178.6868

EPHEMERIS_TYPE = 0
CLASSIFICATION_TYPE = U
NORAD_CAT_ID   = 25407
ELEMENT_SET_NO = 999
REV_AT_EPOCH   = 41446
BSTAR          = -.64972E-4
MEAN_MOTION_DOT = -.176E-5
MEAN_MOTION_DDOT = 0

CCSDS_OMM_VERS = 2.0
CREATION_DATE  = 
ORIGINATOR     = 

OBJECT_NAME    = ISS (ZARYA)
OBJECT_ID      = 1998-067A
CENTER_NAME    = EARTH
REF_FRAME      = TEME
TIME_SYSTEM    = UTC
MEAN_ELEMENT_THEORY = SGP/SGP4

EPOCH          = 2025-12-10T03:42:55.481184
MEAN_MOTION    = 15.49465630
ECCENTRICITY   = .0003395
INCLINATION    = 51.6306
RA_OF_ASC_NODE = 155.2782
ARG_OF_PERICENTER = 228.7831
MEAN_ANOMALY   = 131.2865

EPHEMERIS_TYPE = 0
CLASSIFICATION_TYPE = U
NORAD_CAT_ID   = 25544
ELEMENT_SET_NO = 999
REV_AT_EPOCH   = 54245
BSTAR          = .2721E-3
MEAN_MOTION_DOT = .14816E-3
MEAN_MOTION_DDOT = 0

CCSDS_OMM_VERS = 2.0
CREATION_DATE  = 
ORIGINATOR     = 

OBJECT_NAME    = CZ-4B R/B
OBJECT_ID      = 1999-025C
CENTER_NAME    = EARTH
REF_FRAME      = TEME
TIME_SYSTEM    = UTC
MEAN_ELEMENT_THEORY = SGP/SGP4

EPOCH          = 2025-12-10T09:52:01.784064
MEAN_MOTION    = 14.18242690
ECCENTRICITY   = .0036221
INCLINATION    = 98.6772
RA_OF_ASC_NODE = 25.7432
ARG_OF_PERICENTER = 240.8643
MEAN_ANOMALY   = 129.6286

EPHEMERIS_TYPE = 0
CLASSIFICATION_TYPE = U
NORAD_CAT_ID   = 25732
ELEMENT_SET_NO = 999
REV_AT_EPOCH   = 37551
BSTAR          = .76517E-4
MEAN_MOTION_DOT = .115E-5
MEAN_MOTION_DDOT = 0

CCSDS_OMM_VERS = 2.0
CREATION_DATE  = 
ORIGINATOR     = 

OBJECT_NAME    = OKEAN-O
OBJECT_ID      = 1999-039A
CENTER_NAME    = EARTH
REF_FRAME      = TEME
TIME_SYSTEM    = UTC
MEAN_ELEMENT_THEORY = SGP/SGP4

EPOCH          = 2025-12-10T03:40:29.361504
MEAN_MOTION    = 14.80153992
ECCENTRICITY   = .00007914
INCLINATION    = 97.9605
RA_OF_ASC_NODE = 39.8771
ARG_OF_PERICENTER = 92.7528
MEAN_ANOMALY   = 267.3774

EPHEMERIS_TYPE = 0
CLASSIFICATION_TYPE = U
NORAD_CAT_ID   = 25860
ELEMENT_SET_NO = 999
REV_AT_EPOCH   = 42114
BSTAR          = .16338063E-3
MEAN_MOTION_DOT = .1188E-4
MEAN_MOTION_DDOT = 0

CCSDS_OMM_VERS = 2.0
CREATION_DATE  = 
ORIGINATOR     = 

OBJECT_NAME    = SL-16 R/B
OBJECT_ID      = 1999-039B
CENTER_NAME    = EARTH
REF_FRAME      = TEME
TIME_SYSTEM    = UTC
MEAN_ELEMENT_THEORY = SGP/SGP4

EPOCH          = 2025-12-10T10:05:59.792352
MEAN_MOTION    = 14.81581311
ECCENTRICITY   = .0014745
INCLINATION    = 98.0128
RA_OF_ASC_NODE = 38.5718
ARG_OF_PERICENTER = 182.1760
MEAN_ANOMALY   = 177.9390

EPHEMERIS_TYPE = 0
CLASSIFICATION_TYPE = U
NORAD_CAT_ID   = 25861
ELEMENT_SET_NO = 999
REV_AT_EPOCH   = 42364
BSTAR          = .13885E-3
MEAN_MOTION_DOT = .1038E-4
MEAN_MOTION_DDOT = 0

CCSDS_OMM_VERS = 2.0
CREATION_DATE  = 
ORIGINATOR     = 

OBJECT_NAME    = DELTA 2 R/B
OBJECT_ID      = 1999-041E
CENTER_NAME    = EARTH
REF_FRAME      = TEME
TIME_SYSTEM    = UTC
MEAN_ELEMENT_THEORY = SGP/SGP4

EPOCH          = 2025-12-10T07:20:45.209184
MEAN_MOTION    = 14.11390937
ECCENTRICITY   = .050474
INCLINATION    = 51.7616
RA_OF_ASC_NODE = 298.1609
ARG_OF_PERICENTER = 84.5924
MEAN_ANOMALY   = 281.2353

EPHEMERIS_TYPE = 0
CLASSIFICATION_TYPE = U
NORAD_CAT_ID   = 25876
ELEMENT_SET_NO = 999
REV_AT_EPOCH   = 35040
BSTAR          = .2902E-3
MEAN_MOTION_DOT = .1557E-4
MEAN_MOTION_DDOT = 0

CCSDS_OMM_VERS = 2.0
CREATION_DATE  = 
ORIGINATOR     = 

OBJECT_NAME    = HELIOS 1B
OBJECT_ID      = 1999-064A
CENTER_NAME    = EARTH
REF_FRAME      = TEME
TIME_SYSTEM    = UTC
MEAN_ELEMENT_THEORY = SGP/SGP4

EPOCH          = 2025-12-10T07:32:26.859264
MEAN_MOTION    = 14.87266172
ECCENTRICITY   = .000186
INCLINATION    = 98.1751
RA_OF_ASC_NODE = 238.9078
ARG_OF_PERICENTER = 46.4517
MEAN_ANOMALY   = 313.6852

EPHEMERIS_TYPE = 0
CLASSIFICATION_TYPE = U
NORAD_CAT_ID   = 25977
ELEMENT_SET_NO = 999
REV_AT_EPOCH   = 67197
BSTAR          = .37766E-3
MEAN_MOTION_DOT = .3346E-4
MEAN_MOTION_DDOT = 0

CCSDS_OMM_VERS = 2.0
CREATION_DATE  = 
ORIGINATOR     = 

OBJECT_NAME    = TERRA
OBJECT_ID      = 1999-068A
CENTER_NAME    = EARTH
REF_FRAME      = TEME
TIME_SYSTEM    = UTC
MEAN_ELEMENT_THEORY = SGP/SGP4

EPOCH          = 2025-12-10T09:30:00.919008
MEAN_MOTION    = 14.60897678
ECCENTRICITY   = .0003593
INCLINATION    = 97.9752
RA_OF_ASC_NODE = 36.1664
ARG_OF_PERICENTER = 99.1310
MEAN_ANOMALY   = 271.7216

EPHEMERIS_TYPE = 0
CLASSIFICATION_TYPE = U
NORAD_CAT_ID   = 25994
ELEMENT_SET_NO = 999
REV_AT_EPOCH   = 38204
BSTAR          = .15965E-3
MEAN_MOTION_DOT = .737E-5
MEAN_MOTION_DDOT = 0

CCSDS_OMM_VERS = 2.0
CREATION_DATE  = 
ORIGINATOR     = 

OBJECT_NAME    = SL-16 R/B
OBJECT_ID      = 2000-006B
CENTER_NAME    = EARTH
REF_FRAME      = TEME
TIME_SYSTEM    = UTC
MEAN_ELEMENT_THEORY = SGP/SGP4

EPOCH          = 2025-12-10T06:50:01.421088
MEAN_MOTION    = 14.15810705
ECCENTRICITY   = .0018397
INCLINATION    = 71.0033
RA_OF_ASC_NODE = 285.8189
ARG_OF_PERICENTER = 312.0128
MEAN_ANOMALY   = 47.9428

EPHEMERIS_TYPE = 0
CLASSIFICATION_TYPE = U
NORAD_CAT_ID   = 26070
ELEMENT_SET_NO = 999
REV_AT_EPOCH   = 33590
BSTAR          = .22606E-4
MEAN_MOTION_DOT = -.3E-7
MEAN_MOTION_DDOT = 0

CCSDS_OMM_VERS = 2.0
CREATION_DATE  = 
ORIGINATOR     = 

OBJECT_NAME    = TITAN 4B R/B
OBJECT_ID      = 2000-047B
CENTER_NAME    = EARTH
REF_FRAME      = TEME
TIME_SYSTEM    = UTC
MEAN_ELEMENT_THEORY = SGP/SGP4

EPOCH          = 2025-12-10T10:08:47.340960
MEAN_MOTION    = 15.08752344
ECCENTRICITY   = .0039105
INCLINATION    = 67.9902
RA_OF_ASC_NODE = 291.3621
ARG_OF_PERICENTER = 147.3245
MEAN_ANOMALY   = 213.0336

EPHEMERIS_TYPE = 0
CLASSIFICATION_TYPE = U
NORAD_CAT_ID   = 26474
ELEMENT_SET_NO = 999
REV_AT_EPOCH   = 37944
BSTAR          = .35759E-3
MEAN_MOTION_DOT = .5598E-4
MEAN_MOTION_DDOT = 0

CCSDS_OMM_VERS = 2.0
CREATION_DATE  = 
ORIGINATOR     = 

OBJECT_NAME    = ENVISAT
OBJECT_ID      = 2002-009A
CENTER_NAME    = EARTH
REF_FRAME      = TEME
TIME_SYSTEM    = UTC
MEAN_ELEMENT_THEORY = SGP/SGP4

EPOCH          = 2025-12-10T11:33:07.375968
MEAN_MOTION    = 14.38997939
ECCENTRICITY   = .0001138
INCLINATION    = 98.3595
RA_OF_ASC_NODE = 295.2791
ARG_OF_PERICENTER = 81.9424
MEAN_ANOMALY   = 28.3166

EPHEMERIS_TYPE = 0
CLASSIFICATION_TYPE = U
NORAD_CAT_ID   = 27386
ELEMENT_SET_NO = 999
REV_AT_EPOCH   = 24634
BSTAR          = .95555E-4
MEAN_MOTION_DOT = .252E-5
MEAN_MOTION_DDOT = 0

